{
    "links": {
        "self": "http://www.neowsapp.com/rest/v1/neo/2452561?api_key=iIulBulltgU6a56xZRHN4H3l9WmuAYTsLGpBGhQ2"
    },
    "id": "2452561",
    "neo_reference_id": "2452561",
    "name": "452561 (2005 AB)",
    "designation": "452561",
    "nasa_jpl_url": "http://ssd.jpl.nasa.gov/sbdb.cgi?sstr=2452561",
    "absolute_magnitude_h": 17.5,
    "estimated_diameter": {
        "kilometers": {
            "estimated_diameter_min": 0.8405334021,
            "estimated_diameter_max": 1.8794898244
        },
        "meters": {
            "estimated_diameter_min": 840.5334020728,
            "estimated_diameter_max": 1879.4898243938
        },
        "miles": {
            "estimated_diameter_min": 0.5222830806,
            "estimated_diameter_max": 1.1678604717
        },
        "feet": {
            "estimated_diameter_min": 2757.6556068564,
            "estimated_diameter_max": 6166.3053954643
        }
    },
    "is_potentially_hazardous_asteroid": false,
    "close_approach_data": [
        {
            "close_approach_date": "1947-04-23",
            "close_approach_date_full": "1947-Apr-23 10:47",
            "epoch_date_close_approach": -716130780000,
            "relative_velocity": {
                "kilometers_per_second": "11.5656518767",
                "kilometers_per_hour": "41636.3467562917",
                "miles_per_hour": "25871.2066830969"
            },
            "miss_distance": {
                "astronomical": "0.349484525",
                "lunar": "135.949480225",
                "kilometers": "52282140.53796175",
                "miles": "32486615.70590215"
            },
            "orbiting_body": "Earth"
        },
        {
            "close_approach_date": "2005-03-28",
            "close_approach_date_full": "2005-Mar-28 21:39",
            "epoch_date_close_approach": 1112045940000,
            "relative_velocity": {
                "kilometers_per_second": "6.9689222105",
                "kilometers_per_hour": "25088.1199576256",
                "miles_per_hour": "15588.7820925591"
            },
            "miss_distance": {
                "astronomical": "0.1753240242",
                "lunar": "68.2010454138",
                "kilometers": "26228100.580148454",
                "miles": "16297385.9806745052"
            },
            "orbiting_body": "Earth"
        },
        {
            "close_approach_date": "2057-04-27",
            "close_approach_date_full": "2057-Apr-27 23:46",
            "epoch_date_close_approach": 2755640760000,
            "relative_velocity": {
                "kilometers_per_second": "12.2832829968",
                "kilometers_per_hour": "44219.818788318",
                "miles_per_hour": "27476.4757354413"
            },
            "miss_distance": {
                "astronomical": "0.3325252944",
                "lunar": "129.3523395216",
                "kilometers": "49745075.763362928",
                "miles": "30910156.7563392864"
            },
            "orbiting_body": "Earth"
        },
        {
            "close_approach_date": "2177-03-30",
            "close_approach_date_full": "2177-Mar-30 14:38",
            "epoch_date_close_approach": 6540014280000,
            "relative_velocity": {
                "kilometers_per_second": "5.2160301843",
                "kilometers_per_hour": "18777.7086635909",
                "miles_per_hour": "11667.7379193296"
            },
            "miss_distance": {
                "astronomical": "0.2851565396",
                "lunar": "110.9258939044",
                "kilometers": "42658810.940730652",
                "miles": "26506955.9746889176"
            },
            "orbiting_body": "Earth"
        },
        {
            "close_approach_date": "2183-02-02",
            "close_approach_date_full": "2183-Feb-02 16:18",
            "epoch_date_close_approach": 6724484280000,
            "relative_velocity": {
                "kilometers_per_second": "13.7877386002",
                "kilometers_per_hour": "49635.8589607373",
                "miles_per_hour": "30841.7924747981"
            },
            "miss_distance": {
                "astronomical": "0.0699702311",
                "lunar": "27.2184198979",
                "kilometers": "10467397.535967757",
                "miles": "6504139.2279067666"
            },
            "orbiting_body": "Mars"
        }
    ],
    "orbital_data": {
        "orbit_id": "161",
        "orbit_determination_date": "2017-07-27 06:22:41",
        "first_observation_date": "2005-01-01",
        "last_observation_date": "2017-07-26",
        "data_arc_in_days": 4589,
        "observations_used": 1776,
        "orbit_uncertainty": "0",
        "minimum_orbit_intersection": ".171229",
        "jupiter_tisserand_invariant": "2.793",
        "epoch_osculation": "2459000.5",
        "eccentricity": ".6549148417524228",
        "semi_major_axis": "3.218736381903183",
        "inclination": "8.153526950038501",
        "ascending_node_longitude": "126.2254868256586",
        "orbital_period": "2109.242629932238",
        "perihelion_distance": "1.110738153706294",
        "perihelion_argument": "63.78676534077854",
        "aphelion_distance": "5.326734610100072",
        "perihelion_time": "2459786.174111969231",
        "mean_anomaly": "225.903203218489",
        "mean_motion": ".1706773772212092",
        "equinox": "J2000",
        "orbit_class": {
            "orbit_class_type": "AMO",
            "orbit_class_description": "Near-Earth asteroid orbits similar to that of 1221 Amor",
            "orbit_class_range": "1.017 AU < q (perihelion) < 1.3 AU"
        }
    },
    "is_sentry_object": false
}